{
    "links": {
        "self": "http://www.neowsapp.com/rest/v1/neo/3756107?api_key=iIulBulltgU6a56xZRHN4H3l9WmuAYTsLGpBGhQ2"
    },
    "id": "3756107",
    "neo_reference_id": "3756107",
    "name": "(2016 OV)",
    "designation": "2016 OV",
    "nasa_jpl_url": "http://ssd.jpl.nasa.gov/sbdb.cgi?sstr=3756107",
    "absolute_magnitude_h": 24.6,
    "estimated_diameter": {
        "kilometers": {
            "estimated_diameter_min": 0.0319561887,
            "estimated_diameter_max": 0.0714562102
        },
        "meters": {
            "estimated_diameter_min": 31.9561886721,
            "estimated_diameter_max": 71.4562101727
        },
        "miles": {
            "estimated_diameter_min": 0.0198566489,
            "estimated_diameter_max": 0.0444008168
        },
        "feet": {
            "estimated_diameter_min": 104.8431420431,
            "estimated_diameter_max": 234.436392583
        }
    },
    "is_potentially_hazardous_asteroid": false,
    "close_approach_data": [
        {
            "close_approach_date": "1920-11-11",
            "close_approach_date_full": "1920-Nov-11 00:14",
            "epoch_date_close_approach": -1550706360000,
            "relative_velocity": {
                "kilometers_per_second": "7.2845765223",
                "kilometers_per_hour": "26224.4754804432",
                "miles_per_hour": "16294.8692228343"
            },
            "miss_distance": {
                "astronomical": "1.8250502454",
                "lunar": "709.9445454606",
                "kilometers": "273023629.354817298",
                "miles": "169649016.5516547924"
            },
            "orbiting_body": "Juptr"
        },
        {
            "close_approach_date": "1922-10-30",
            "close_approach_date_full": "1922-Oct-30 13:33",
            "epoch_date_close_approach": -1488623220000,
            "relative_velocity": {
                "kilometers_per_second": "19.2915530509",
                "kilometers_per_hour": "69449.5909832188",
                "miles_per_hour": "43153.275019545"
            },
            "miss_distance": {
                "astronomical": "0.3515632411",
                "lunar": "136.7581007879",
                "kilometers": "52593112.038856457",
                "miles": "32679844.4364228266"
            },
            "orbiting_body": "Earth"
        },
        {
            "close_approach_date": "2016-08-07",
            "close_approach_date_full": "2016-Aug-07 10:42",
            "epoch_date_close_approach": 1470566520000,
            "relative_velocity": {
                "kilometers_per_second": "12.4703784241",
                "kilometers_per_hour": "44893.3623266012",
                "miles_per_hour": "27894.9894967706"
            },
            "miss_distance": {
                "astronomical": "0.0232356377",
                "lunar": "9.0386630653",
                "kilometers": "3476001.908011699",
                "miles": "2159887.4303274862"
            },
            "orbiting_body": "Earth"
        },
        {
            "close_approach_date": "2098-11-23",
            "close_approach_date_full": "2098-Nov-23 04:45",
            "epoch_date_close_approach": 4067556300000,
            "relative_velocity": {
                "kilometers_per_second": "8.1029766309",
                "kilometers_per_hour": "29170.715871259",
                "miles_per_hour": "18125.548425672"
            },
            "miss_distance": {
                "astronomical": "1.9627986901",
                "lunar": "763.5286904489",
                "kilometers": "293630503.277750087",
                "miles": "182453534.2539897206"
            },
            "orbiting_body": "Juptr"
        },
        {
            "close_approach_date": "2100-07-19",
            "close_approach_date_full": "2100-Jul-19 03:54",
            "epoch_date_close_approach": 4119652440000,
            "relative_velocity": {
                "kilometers_per_second": "16.3141950015",
                "kilometers_per_hour": "58731.1020054241",
                "miles_per_hour": "36493.2227988703"
            },
            "miss_distance": {
                "astronomical": "0.068121563",
                "lunar": "26.499288007",
                "kilometers": "10190840.72587081",
                "miles": "6332294.794644778"
            },
            "orbiting_body": "Earth"
        }
    ],
    "orbital_data": {
        "orbit_id": "9",
        "orbit_determination_date": "2017-04-06 08:24:49",
        "first_observation_date": "2016-07-28",
        "last_observation_date": "2016-08-04",
        "data_arc_in_days": 7,
        "observations_used": 34,
        "orbit_uncertainty": "8",
        "minimum_orbit_intersection": ".00670624",
        "jupiter_tisserand_invariant": "2.998",
        "epoch_osculation": "2457600.5",
        "eccentricity": ".6538003399440255",
        "semi_major_axis": "2.702747118773513",
        "inclination": "10.47556528700547",
        "ascending_node_longitude": "133.2127202299409",
        "orbital_period": "1622.955254926487",
        "perihelion_distance": ".9356901337366548",
        "perihelion_argument": "213.9854885244756",
        "aphelion_distance": "4.469804103810372",
        "perihelion_time": "2457632.657163725642",
        "mean_anomaly": "352.8669759033157",
        "mean_motion": ".2218175756276821",
        "equinox": "J2000",
        "orbit_class": {
            "orbit_class_type": "APO",
            "orbit_class_description": "Near-Earth asteroid orbits which cross the Earth’s orbit similar to that of 1862 Apollo",
            "orbit_class_range": "a (semi-major axis) > 1.0 AU; q (perihelion) < 1.017 AU"
        }
    },
    "is_sentry_object": false
}